NORAD_CAT_ID,OBJECT_NAME,OBJECT_TYPE,EPOCH,MEAN_MOTION,ECCENTRICITY,INCLINATION,RA_OF_ASC_NODE,ARG_OF_PERICENTER,MEAN_ANOMALY,BSTAR,MEAN_MOTION_DOT,MEAN_MOTION_DDOT,TLE_LINE0,TLE_LINE1,TLE_LINE2,SEMIMAJOR_AXIS,PERIOD,APOGEE,PERIGEE,DECAYED
51793.0,STARLINK-3633,PAYLOAD,2024-05-11 14:42:22,15.08880839,0.0001463,53.2181,103.7539,104.4379,255.6775,0.00031974,4.81e-05,0.0,0 STARLINK-3633,1 51793U 22017AB  24132.61276274  .00004810  00000-0  31974-3 0  9994,2 51793  53.2181 103.7539 0001463 104.4379 255.6775 15.08880839123268,6917.756,95.435,540.633,538.608,0.0
51793.0,STARLINK-3633,PAYLOAD,2024-05-11 22:39:21,15.08823703,0.0001527,53.2178,102.2664,99.6957,260.4208,-0.00025511,-4.344e-05,0.0,0 STARLINK-3633,1 51793U 22017AB  24132.94400003 -.00004344  00000-0 -25511-3 0  9993,2 51793  53.2178 102.2664 0001527  99.6957 260.4208 15.08823703123313,6917.93,95.439,540.852,538.739,0.0
51793.0,STARLINK-3633,PAYLOAD,2024-05-12 05:00:56,15.08789538,0.0001711,53.2176,101.0772,98.0738,262.0448,-0.00069423,-0.00011304,0.0,0 STARLINK-3633,1 51793U 22017AB  24133.20898428 -.00011304  00000-0 -69423-3 0  9999,2 51793  53.2176 101.0772 0001711  98.0738 262.0448 15.08789538123358,6918.035,95.441,541.083,538.716,0.0
51793.0,STARLINK-3633,PAYLOAD,2024-05-12 14:33:16,15.08785715,0.0001809,53.2178,99.2928,97.398,262.7218,-0.00063582,-0.00010378,0.0,0 STARLINK-3633,1 51793U 22017AB  24133.60643745 -.00010378  00000-0 -63582-3 0  9993,2 51793  53.2178  99.2928 0001809  97.3980 262.7218 15.08785715123412,6918.046,95.441,541.163,538.66,0.0
51793.0,STARLINK-3633,PAYLOAD,2024-05-12 22:30:10,15.08823511,0.0001684,53.2175,97.8072,94.1758,265.9427,-0.00040731,-6.762e-05,0.0,0 STARLINK-3633,1 51793U 22017AB  24133.93762528 -.00006762  00000-0 -40731-3 0  9993,2 51793  53.2175  97.8072 0001684  94.1758 265.9427 15.08823511123461,6917.931,95.439,540.961,538.631,0.0
51793.0,STARLINK-3633,PAYLOAD,2024-05-13 04:51:43,15.08830194,0.0001618,53.2174,96.618,95.7576,264.3601,9.3288e-05,1.197e-05,0.0,0 STARLINK-3633,1 51793U 22017AB  24134.20258356  .00001197  00000-0  93288-4 0  9994,2 51793  53.2174  96.6180 0001618  95.7576 264.3601 15.08830194123506,6917.91,95.438,540.895,538.656,0.0
51793.0,STARLINK-3633,PAYLOAD,2024-05-13 06:27:06,15.08830464,0.0001629,53.2175,96.3206,96.1328,263.985,0.00014674,2.048e-05,0.0,0 STARLINK-3633,1 51793U 22017AB  24134.26882467  .00002048  00000-0  14674-3 0  9993,2 51793  53.2175  96.3206 0001629  96.1328 263.9850 15.08830464123517,6917.91,95.438,540.901,538.648,0.0
51793.0,STARLINK-3633,PAYLOAD,2024-05-13 14:24:02,15.08834786,0.0001582,53.2171,94.8325,92.0662,268.0511,0.00037539,5.691e-05,0.0,0 STARLINK-3633,1 51793U 22017AB  24134.60002711  .00005691  00000-0  37539-3 0  9999,2 51793  53.2171  94.8325 0001582  92.0662 268.0511 15.08834786123568,6917.896,95.438,540.856,538.667,0.0
51793.0,STARLINK-3633,PAYLOAD,2024-05-14 06:17:53,15.08845821,0.0001662,53.2168,91.8581,94.8818,265.2364,0.00087483,0.00013665,0.0,0 STARLINK-3633,1 51793U 22017AB  24135.26243019  .00013665  00000-0  87483-3 0  9993,2 51793  53.2168  91.8581 0001662  94.8818 265.2364 15.08845821123665,6917.863,95.437,540.877,538.578,0.0
51793.0,STARLINK-3633,PAYLOAD,2024-05-14 14:14:49,15.08857795,0.0001636,53.2168,90.3719,97.5846,262.5332,0.00076784,0.00011959,0.0,0 STARLINK-3633,1 51793U 22017AB  24135.59362359  .00011959  00000-0  76784-3 0  9994,2 51793  53.2168  90.3719 0001636  97.5846 262.5332 15.08857795123718,6917.826,95.436,540.823,538.559,0.0
51793.0,STARLINK-3633,PAYLOAD,2024-05-15 04:33:15,15.08895672,0.0001458,53.216,87.6955,97.7834,262.3324,0.00091193,0.00014277,0.0,0 STARLINK-3633,1 51793U 22017AB  24136.18975795  .00014277  00000-0  91193-3 0  9991,2 51793  53.2160  87.6955 0001458  97.7834 262.3324 15.08895672123807,6917.71,95.434,540.584,538.567,0.0
51793.0,STARLINK-3633,PAYLOAD,2024-05-16 02:48:38,15.08862906,0.0001737,53.2161,83.5319,88.2769,271.8422,0.00060512,9.362e-05,0.0,0 STARLINK-3633,1 51793U 22017AB  24137.11711721  .00009362  00000-0  60512-3 0  9992,2 51793  53.2161  83.5319 0001737  88.2769 271.8422 15.08862906123942,6917.81,95.436,540.877,538.474,0.0
51793.0,STARLINK-3633,PAYLOAD,2024-05-16 13:56:21,15.0885347,0.0001536,53.2159,81.4501,92.853,267.2638,0.00135,0.0002127,0.0,0 STARLINK-3633,1 51793U 22017AB  24137.58079913  .00021270  00000-0  13500-2 0  9999,2 51793  53.2159  81.4501 0001536  92.8530 267.2638 15.08853470124016,6917.839,95.437,540.767,538.642,0.0
51793.0,STARLINK-3633,PAYLOAD,2024-05-16 20:17:53,15.08844276,0.0002364,53.2167,80.2597,96.0111,264.115,0.0015483,0.00024442,0.0,0 STARLINK-3633,1 51793U 22017AB  24137.84576106  .00024442  00000-0  15483-2 0  9990,2 51793  53.2167  80.2597 0002364  96.0111 264.1150 15.08844276124051,6917.867,95.437,541.368,538.097,0.0
51793.0,STARLINK-3633,PAYLOAD,2024-05-17 02:39:26,15.08838374,0.0001591,53.217,79.0714,102.0587,258.0583,0.0013663,0.00021523,0.0,0 STARLINK-3633,1 51793U 22017AB  24138.11072265  .00021523  00000-0  13663-2 0  9993,2 51793  53.2170  79.0714 0001591 102.0587 258.0583 15.08838374124096,6917.885,95.438,540.851,538.65,0.0
51793.0,STARLINK-3633,PAYLOAD,2024-05-18 02:30:14,15.08841468,0.0001252,53.2159,74.6124,82.2839,277.8296,0.00078746,0.00012267,0.0,0 STARLINK-3633,1 51793U 22017AB  24139.10433117  .00012267  00000-0  78746-3 0  9999,2 51793  53.2159  74.6124 0001252  82.2839 277.8296 15.08841468124247,6917.876,95.437,540.607,538.875,0.0
51793.0,STARLINK-3633,PAYLOAD,2024-05-19 02:21:00,15.0887565,0.0001307,53.217,70.151,102.2156,257.8982,0.0017999,0.00028502,0.0,0 STARLINK-3633,1 51793U 22017AB  24140.09792214  .00028502  00000-0  17999-2 0  9996,2 51793  53.2170  70.1510 0001307 102.2156 257.8982 15.08875650124392,6917.771,95.435,540.541,538.732,0.0
51793.0,STARLINK-3633,PAYLOAD,2024-05-19 19:50:15,15.08838429,0.0001419,53.2179,66.8802,87.7337,272.3818,-5.8416e-05,-1.217e-05,0.0,0 STARLINK-3633,1 51793U 22017AB  24140.82656606 -.00001217  00000-0 -58416-4 0  9998,2 51793  53.2179  66.8802 0001419  87.7337 272.3818 15.08838429124505,6917.885,95.438,540.732,538.769,0.0
51793.0,STARLINK-3633,PAYLOAD,2024-05-20 03:47:11,15.08829174,0.0001166,53.218,65.3923,82.089,278.0235,-0.00022195,-3.817e-05,0.0,0 STARLINK-3633,1 51793U 22017AB  24141.15777095 -.00003817  00000-0 -22195-3 0  9993,2 51793  53.2180  65.3923 0001166  82.0890 278.0235 15.08829174124554,6917.913,95.438,540.585,538.972,0.0
51793.0,STARLINK-3633,PAYLOAD,2024-05-21 03:37:59,15.0883316,0.0001735,53.2186,60.9344,79.2595,280.8593,6.421e-05,7.34e-06,0.0,0 STARLINK-3633,1 51793U 22017AB  24142.15137922  .00000734  00000-0  64210-4 0  9991,2 51793  53.2186  60.9344 0001735  79.2595 280.8593 15.08833160124705,6917.901,95.438,540.967,538.566,0.0
51793.0,STARLINK-3633,PAYLOAD,2024-05-21 22:42:37,15.08844374,0.0001565,53.2195,57.3664,75.4447,284.6718,0.00046726,7.157e-05,0.0,0 STARLINK-3633,1 51793U 22017AB  24142.94626248  .00007157  00000-0  46726-3 0  9999,2 51793  53.2195  57.3664 0001565  75.4447 284.6718 15.08844374124828,6917.867,95.437,540.815,538.649,0.0
51793.0,STARLINK-3633,PAYLOAD,2024-05-22 03:28:46,15.08861385,0.0001329,53.218,56.4744,76.5192,283.5949,0.00088896,0.00013896,0.0,0 STARLINK-3633,1 51793U 22017AB  24143.14497780  .00013896  00000-0  88896-3 0  9990,2 51793  53.2180  56.4744 0001329  76.5192 283.5949 15.08861385124856,6917.815,95.436,540.599,538.761,0.0
51793.0,STARLINK-3633,PAYLOAD,2024-05-23 01:44:09,15.0884996,0.0001062,53.217,52.3086,115.1,245.0102,0.00033973,5.125e-05,0.0,0 STARLINK-3633,1 51793U 22017AB  24144.07233639  .00005125  00000-0  33973-3 0  9996,2 51793  53.2170  52.3086 0001062 115.1000 245.0102 15.08849960124995,6917.85,95.437,540.45,538.98,0.0
51793.0,STARLINK-3633,PAYLOAD,2024-05-24 03:10:20,15.08846646,0.0001689,53.2173,47.5546,55.3934,304.7217,0.00062827,9.727e-05,0.0,0 STARLINK-3633,1 51793U 22017AB  24145.13218088  .00009727  00000-0  62827-3 0  9997,2 51793  53.2173  47.5546 0001689  55.3934 304.7217 15.08846646125158,6917.86,95.437,540.894,538.557,0.0
51793.0,STARLINK-3633,PAYLOAD,2024-05-24 20:39:36,15.08836654,0.0001539,53.2183,44.2841,96.5098,263.607,0.00026563,3.942e-05,0.0,0 STARLINK-3633,1 51793U 22017AB  24145.86083520  .00003942  00000-0  26563-3 0  9998,2 51793  53.2183  44.2841 0001539  96.5098 263.6070 15.08836654125263,6917.891,95.438,540.82,538.691,0.0
51793.0,STARLINK-3633,PAYLOAD,2024-05-24 22:14:59,15.08842205,0.000126,53.2182,43.984,68.6864,291.4263,0.00032755,4.929e-05,0.0,0 STARLINK-3633,1 51793U 22017AB  24145.92707379  .00004929  00000-0  32755-3 0  9996,2 51793  53.2182  43.9840 0001260  68.6864 291.4263 15.08842205125272,6917.874,95.437,540.61,538.867,0.0
51793.0,STARLINK-3633,PAYLOAD,2024-05-24 23:50:22,15.08844072,0.0001277,53.2184,43.6858,64.5523,295.5602,0.0003613,5.467e-05,0.0,0 STARLINK-3633,1 51793U 22017AB  24145.99331335  .00005467  00000-0  36130-3 0  9997,2 51793  53.2184  43.6858 0001277  64.5523 295.5602 15.08844072125282,6917.868,95.437,540.616,538.85,0.0
51793.0,STARLINK-3633,PAYLOAD,2024-05-25 23:41:08,15.08856168,8.99e-05,53.2174,39.2254,76.6553,283.4539,0.00025026,3.699e-05,0.0,0 STARLINK-3633,1 51793U 22017AB  24146.98690437  .00003699  00000-0  25026-3 0  9995,2 51793  53.2174  39.2254 0000899  76.6553 283.4539 15.08856168125439,6917.831,95.437,540.318,539.074,0.0
51793.0,STARLINK-3633,PAYLOAD,2024-05-26 20:21:09,15.08847016,0.0001055,53.2176,35.3593,69.7276,290.3829,1.6364e-05,-2.7e-07,0.0,0 STARLINK-3633,1 51793U 22017AB  24147.84802869 -.00000027  00000-0  16364-4 0  9994,2 51793  53.2176  35.3593 0001055  69.7276 290.3829 15.08847016125569,6917.859,95.437,540.454,538.994,0.0
51793.0,STARLINK-3633,PAYLOAD,2024-05-26 21:56:32,15.08847688,0.0001078,53.2177,35.0631,65.5677,294.5428,3.2344e-05,2.27e-06,0.0,0 STARLINK-3633,1 51793U 22017AB  24147.91426801  .00000227  00000-0  32344-4 0  9997,2 51793  53.2177  35.0631 0001078  65.5677 294.5428 15.08847688125571,6917.857,95.437,540.468,538.976,0.0
